CCSDS_OMM_VERS = 2.0
CREATION_DATE  = 
ORIGINATOR     = 

OBJECT_NAME    = SOYUZ-MS 28
OBJECT_ID      = 2025-275A
CENTER_NAME    = EARTH
REF_FRAME      = TEME
TIME_SYSTEM    = UTC
MEAN_ELEMENT_THEORY = SGP/SGP4

EPOCH          = 2026-01-08T05:48:29.886048
MEAN_MOTION    = 15.49170014
ECCENTRICITY   = .00076194
INCLINATION    = 51.6331
RA_OF_ASC_NODE = 11.2620
ARG_OF_PERICENTER = 354.1778
MEAN_ANOMALY   = 5.9120

EPHEMERIS_TYPE = 0
CLASSIFICATION_TYPE = U
NORAD_CAT_ID   = 66664
ELEMENT_SET_NO = 999
REV_AT_EPOCH   = 128
BSTAR          = .17753341E-3
MEAN_MOTION_DOT = .9406E-4
MEAN_MOTION_DDOT = 0

CCSDS_OMM_VERS = 2.0
CREATION_DATE  = 
ORIGINATOR     = 

OBJECT_NAME    = 1998-067XS
OBJECT_ID      = 1998-067XS
CENTER_NAME    = EARTH
REF_FRAME      = TEME
TIME_SYSTEM    = UTC
MEAN_ELEMENT_THEORY = SGP/SGP4

EPOCH          = 2026-01-08T06:28:11.393184
MEAN_MOTION    = 15.52153923
ECCENTRICITY   = .00023462
INCLINATION    = 51.6330
RA_OF_ASC_NODE = 10.6984
ARG_OF_PERICENTER = 342.2804
MEAN_ANOMALY   = 17.8104

EPHEMERIS_TYPE = 0
CLASSIFICATION_TYPE = U
NORAD_CAT_ID   = 66906
ELEMENT_SET_NO = 999
REV_AT_EPOCH   = 573
BSTAR          = .50784749E-3
MEAN_MOTION_DOT = .30953E-3
MEAN_MOTION_DDOT = 0

CCSDS_OMM_VERS = 2.0
CREATION_DATE  = 
ORIGINATOR     = 

OBJECT_NAME    = 1998-067XT
OBJECT_ID      = 1998-067XT
CENTER_NAME    = EARTH
REF_FRAME      = TEME
TIME_SYSTEM    = UTC
MEAN_ELEMENT_THEORY = SGP/SGP4

EPOCH          = 2026-01-08T07:09:07.418592
MEAN_MOTION    = 15.55450029
ECCENTRICITY   = .00037832
INCLINATION    = 51.6314
RA_OF_ASC_NODE = 10.1378
ARG_OF_PERICENTER = 28.5335
MEAN_ANOMALY   = 331.5862

EPHEMERIS_TYPE = 0
CLASSIFICATION_TYPE = U
NORAD_CAT_ID   = 66907
ELEMENT_SET_NO = 999
REV_AT_EPOCH   = 574
BSTAR          = .12427457E-2
MEAN_MOTION_DOT = .86828E-3
MEAN_MOTION_DDOT = 0

CCSDS_OMM_VERS = 2.0
CREATION_DATE  = 
ORIGINATOR     = 

OBJECT_NAME    = 1998-067XU
OBJECT_ID      = 1998-067XU
CENTER_NAME    = EARTH
REF_FRAME      = TEME
TIME_SYSTEM    = UTC
MEAN_ELEMENT_THEORY = SGP/SGP4

EPOCH          = 2026-01-08T05:35:06.699552
MEAN_MOTION    = 15.55427969
ECCENTRICITY   = .00037431
INCLINATION    = 51.6306
RA_OF_ASC_NODE = 10.4506
ARG_OF_PERICENTER = 23.8255
MEAN_ANOMALY   = 336.2909

EPHEMERIS_TYPE = 0
CLASSIFICATION_TYPE = U
NORAD_CAT_ID   = 66908
ELEMENT_SET_NO = 999
REV_AT_EPOCH   = 573
BSTAR          = .12154655E-2
MEAN_MOTION_DOT = .8482E-3
MEAN_MOTION_DDOT = 0

CCSDS_OMM_VERS = 2.0
CREATION_DATE  = 
ORIGINATOR     = 

OBJECT_NAME    = SILVERSAT
OBJECT_ID      = 1998-067XV
CENTER_NAME    = EARTH
REF_FRAME      = TEME
TIME_SYSTEM    = UTC
MEAN_ELEMENT_THEORY = SGP/SGP4

EPOCH          = 2026-01-08T06:59:22.701408
MEAN_MOTION    = 15.56026487
ECCENTRICITY   = .00039131
INCLINATION    = 51.6311
RA_OF_ASC_NODE = 10.0920
ARG_OF_PERICENTER = 32.7132
MEAN_ANOMALY   = 327.4101

EPHEMERIS_TYPE = 0
CLASSIFICATION_TYPE = U
NORAD_CAT_ID   = 66909
ELEMENT_SET_NO = 999
REV_AT_EPOCH   = 574
BSTAR          = .13855408E-2
MEAN_MOTION_DOT = .99107E-3
MEAN_MOTION_DDOT = 0

CCSDS_OMM_VERS = 2.0
CREATION_DATE  = 
ORIGINATOR     = 

OBJECT_NAME    = 1998-067XW
OBJECT_ID      = 1998-067XW
CENTER_NAME    = EARTH
REF_FRAME      = TEME
TIME_SYSTEM    = UTC
MEAN_ELEMENT_THEORY = SGP/SGP4

EPOCH          = 2026-01-08T06:59:30.874848
MEAN_MOTION    = 15.55733722
ECCENTRICITY   = .00028791
INCLINATION    = 51.6299
RA_OF_ASC_NODE = 10.0914
ARG_OF_PERICENTER = 6.0671
MEAN_ANOMALY   = 354.0354

EPHEMERIS_TYPE = 0
CLASSIFICATION_TYPE = U
NORAD_CAT_ID   = 66910
ELEMENT_SET_NO = 999
REV_AT_EPOCH   = 574
BSTAR          = .12961996E-2
MEAN_MOTION_DOT = .91586E-3
MEAN_MOTION_DDOT = 0

CCSDS_OMM_VERS = 2.0
CREATION_DATE  = 
ORIGINATOR     = 

OBJECT_NAME    = 1998-067XX
OBJECT_ID      = 1998-067XX
CENTER_NAME    = EARTH
REF_FRAME      = TEME
TIME_SYSTEM    = UTC
MEAN_ELEMENT_THEORY = SGP/SGP4

EPOCH          = 2026-01-08T06:44:01.330944
MEAN_MOTION    = 15.56701040
ECCENTRICITY   = .00028886
INCLINATION    = 51.6304
RA_OF_ASC_NODE = 10.0198
ARG_OF_PERICENTER = 22.2938
MEAN_ANOMALY   = 337.8179

EPHEMERIS_TYPE = 0
CLASSIFICATION_TYPE = U
NORAD_CAT_ID   = 66911
ELEMENT_SET_NO = 999
REV_AT_EPOCH   = 573
BSTAR          = .14299999E-2
MEAN_MOTION_DOT = .10497E-2
MEAN_MOTION_DDOT = 0

CCSDS_OMM_VERS = 2.0
CREATION_DATE  = 
ORIGINATOR     = 

OBJECT_NAME    = 1998-067XY
OBJECT_ID      = 1998-067XY
CENTER_NAME    = EARTH
REF_FRAME      = TEME
TIME_SYSTEM    = UTC
MEAN_ELEMENT_THEORY = SGP/SGP4

EPOCH          = 2026-01-08T05:55:25.064832
MEAN_MOTION    = 15.54232808
ECCENTRICITY   = .00036554
INCLINATION    = 51.6316
RA_OF_ASC_NODE = 10.5451
ARG_OF_PERICENTER = 12.4977
MEAN_ANOMALY   = 347.6104

EPHEMERIS_TYPE = 0
CLASSIFICATION_TYPE = U
NORAD_CAT_ID   = 66912
ELEMENT_SET_NO = 999
REV_AT_EPOCH   = 572
BSTAR          = .9504627E-3
MEAN_MOTION_DOT = .63192E-3
MEAN_MOTION_DDOT = 0

