SOYUZ-MS 28             
1 66664U 25275A   26008.24201257  .00009406  00000+0  17753-3 0  9992
2 66664  51.6331  11.2620 0007619 354.1778   5.9120 15.49170014  1289
1998-067XS              
1 66906U 98067XS  26008.26957631  .00030953  00000+0  50785-3 0  9999
2 66906  51.6330  10.6984 0002346 342.2804  17.8104 15.52153923  5735
1998-067XT              
1 66907U 98067XT  26008.29800253  .00086828  00000+0  12427-2 0  9992
2 66907  51.6314  10.1378 0003783  28.5335 331.5862 15.55450029  5747
1998-067XU              
1 66908U 98067XU  26008.23271643  .00084820  00000+0  12155-2 0  9990
2 66908  51.6306  10.4506 0003743  23.8255 336.2909 15.55427969  5730
SILVERSAT               
1 66909U 98067XV  26008.29123497  .00099107  00000+0  13855-2 0  9992
2 66909  51.6311  10.0920 0003913  32.7132 327.4101 15.56026487  5743
1998-067XW              
1 66910U 98067XW  26008.29132957  .00091586  00000+0  12962-2 0  9996
2 66910  51.6299  10.0914 0002879   6.0671 354.0354 15.55733722  5747
1998-067XX              
1 66911U 98067XX  26008.28057096  .00104970  00000+0  14300-2 0  9996
2 66911  51.6304  10.0198 0002888  22.2938 337.8179 15.56701040  5737
1998-067XY              
1 66912U 98067XY  26008.24681788  .00063192  00000+0  95046-3 0  9991
2 66912  51.6316  10.5451 0003655  12.4977 347.6104 15.54232808  5720
